TDRS 3                  
1 19548U 88091B   22280.55396589 -.00000311  00000+0  00000+0 0  9991
2 19548  13.6347 350.4402 0035369 325.7510 210.6059  1.00270659111860
HST                     
1 20580U 90037B   22281.07000444  .00004658  00000+0  26111-3 0  9994
2 20580  28.4692 142.3744 0002447 165.3688 323.9299 15.10999173583533
TDRS 5                  
1 21639U 91054B   22281.20644230  .00000073  00000+0  00000+0 0  9994
2 21639  14.2301   3.7605 0021776   0.3244 279.3991  1.00275135114191
TDRS 6                  
1 22314U 93003B   22281.21605116 -.00000306  00000+0  00000+0 0  9992
2 22314  14.1391   7.0112 0010101 137.0069 264.8080  1.00272722108867
TDRS 7                  
1 23613U 95035B   22280.86474301 -.00000214  00000+0  00000+0 0  9990
2 23613  13.9359 357.7117 0025048  58.8209 356.1309  1.00274398 99637
ISS (ZARYA)             
1 25544U 98067A   22281.54060918  .00015160  00000+0  27464-3 0  9996
2 25544  51.6425 134.9971 0002936 273.5087 176.8424 15.49837370362764
LANDSAT 7               
1 25682U 99020A   22281.46006285  .00000437  00000+0  10059-3 0  9990
2 25682  97.9677 325.2037 0001726  90.2407 269.8999 14.59816643249059
TERRA                   
1 25994U 99068A   22281.50109124  .00000607  00000+0  14434-3 0  9999
2 25994  98.1271 350.7721 0001031  98.2438 318.4702 14.57172531213088
TDRS 8                  
1 26388U 00034A   22281.31093153 -.00000244  00000+0  00000+0 0  9993
2 26388  10.5441  41.7562 0017392 341.7809 194.6785  1.00270262 81653
TIMED                   
1 26998U 01055B   22280.80088108  .00001896  00000+0  20619-3 0  9996
2 26998  74.0726  55.7962 0002202 271.2009  88.8919 14.88838222129868
TDRS 9                  
1 27389U 02011A   22280.85004198 -.00000297  00000+0  00000+0 0  9999
2 27389   9.2562  59.7724 0022347 293.9353 266.2893  1.00265210 76928
AQUA                    
1 27424U 02022A   22280.82244097  .00001307  00000+0  29827-3 0  9996
2 27424  98.2555 221.6912 0000748  85.8821 358.8533 14.57421246 86598
TDRS 10                 
1 27566U 02055A   22281.11551550  .00000079  00000+0  00000+0 0  9990
2 27566   8.4067  49.3106 0004446 337.1529 220.8692  1.00277550 72706
SORCE                   
1 27651U 03004A   22280.79912761  .00003158  00000+0  33280-3 0  9999
2 27651  39.9953 310.0754 0022924 185.8441 174.2083 14.90193983 69851
AURA                    
1 28376U 04026A   22280.83961582  .00001095  00000+0  25315-3 0  9997
2 28376  98.2175 222.5969 0001121  84.1865 275.9461 14.57092540969591
SWIFT                   
1 28485U 04047A   22281.19433115  .00008097  00000+0  49405-3 0  9992
2 28485  20.5564 238.5905 0010260 288.2558  71.6760 15.07088263980655
THEMIS A                
1 30580U 07004A   22280.46904788 -.00000448  00000+0  62298-2 0  9992
2 30580  13.3193 333.7633 8371043 188.7679 126.8801  0.87836345 54119
THEMIS D                
1 30797U 07004D   22281.18885434 -.00000542  00000+0  00000+0 0  9993
2 30797   9.1261 322.5525 8327062 203.1581   6.2993  0.87838428 53644
THEMIS E                
1 30798U 07004E   22281.46492738 -.00000568  00000+0  00000+0 0  9994
2 30798  10.1303 336.8394 8318369 190.9060  83.8726  0.87841894 54064
AIM                     
1 31304U 07015A   22281.34709948  .00018504  00000+0  87597-3 0  9999
2 31304  97.8529 204.8623 0004701  13.3839 346.7518 15.19394540848327
FGRST (GLAST)           
1 33053U 08029A   22280.86920431  .00003375  00000+0  17178-3 0  9994
2 33053  25.5819 120.4649 0012278  44.6652 315.4871 15.12490536790730
WISE                    
1 36119U 09071A   22280.83662129  .00012546  00000+0  37236-3 0  9999
2 36119  97.2309 313.0547 0000567 218.1794 141.9410 15.34935667712734
TDRS 11                 
1 39070U 13004A   22281.22303414  .00000060  00000+0  00000+0 0  9995
2 39070   2.8408 349.3602 0004847  87.3580 206.2289  1.00265295 35461
TDRS 12                 
1 39504U 14004A   22280.85448919 -.00000289  00000+0  00000+0 0  9990
2 39504   3.7727 349.3095 0002918 163.0159 130.8963  1.00273926 30752
GPM-CORE                
1 39574U 14009C   22281.43806878  .00028994  00000+0  41860-3 0  9994
2 39574  65.0007 163.7568 0007991 255.7406 104.2853 15.55831314489199
MMS 1                   
1 40482U 15011A   22280.12344853 -.00001028  00000+0  00000+0 0  9990
2 40482  30.7171  96.7319 8823832  62.1539 359.7070  0.28529549 13621
MMS 2                   
1 40483U 15011B   22280.31579066 -.00001006  00000+0  00000+0 0  9994
2 40483  30.6844  96.6856 8825638  62.2088  19.4744  0.28552508 13684
MMS 3                   
1 40484U 15011C   22280.31579205 -.00001004  00000+0  00000+0 0  9998
2 40484  30.7081  96.7126 8824213  62.1756  19.5179  0.28557313 13366
MMS 4                   
1 40485U 15011D   22280.31579192 -.00001005  00000+0  00000+0 0  9995
2 40485  30.6804  96.7069 8824070  62.1811  19.5054  0.28552611 13579
TDRS 13                 
1 42915U 17047A   22281.00381183 -.00000121  00000+0  00000+0 0  9992
2 42915   4.3249 334.5773 0015982 126.2733 265.7232  1.00271999 18864
JPSS-1                  
1 43013U 17073A   22281.42144633  .00000113  00000+0  74543-4 0  9992
2 43013  98.7232 218.2357 0001654  87.7967 272.3398 14.19548356253259
